{
  "norad_id": 59710,
  "name": "STARLINK-11092 [DTC]",
  "history": [
    {
      "epoch": "2026-03-28T16:38:59.110944Z",
      "apogee_km": 361.128814880949,
      "perigee_km": 358.37477021588256,
      "latitude_deg": 5.0863510733385255e-05,
      "longitude_deg": 156.97992538649112,
      "height_km": 360.87438745760795,
      "semi_major_axis_km": 6737.888792548415,
      "eccentricity": 0.00020437,
      "inclination_deg": 53.1598,
      "raan_deg": 232.8367,
      "arg_perigee_deg": 98.7833,
      "mean_anomaly_deg": 261.3417,
      "mean_motion_rev_day": 15.69701249
    },
    {
      "epoch": "2026-03-30T12:57:46.491552Z",
      "apogee_km": 359.60152787134757,
      "perigee_km": 359.0813945341424,
      "latitude_deg": -3.359010783687385e-05,
      "longitude_deg": -158.63913258549468,
      "height_km": 360.4802808104778,
      "semi_major_axis_km": 6737.478461202744,
      "eccentricity": 3.86e-05,
      "inclination_deg": 53.1587,
      "raan_deg": 223.735,
      "arg_perigee_deg": 149.504,
      "mean_anomaly_deg": 210.6,
      "mean_motion_rev_day": 15.6984465
    },
    {
      "epoch": "2026-03-30T14:29:26.611872Z",
      "apogee_km": 359.51896811309507,
      "perigee_km": 358.99223875935877,
      "latitude_deg": -8.768598629066102e-06,
      "longitude_deg": 178.0669730040143,
      "height_km": 360.43241325296674,
      "semi_major_axis_km": 6737.392603436227,
      "eccentricity": 3.909e-05,
      "inclination_deg": 53.1586,
      "raan_deg": 223.421,
      "arg_perigee_deg": 186.2568,
      "mean_anomaly_deg": 173.8445,
      "mean_motion_rev_day": 15.69874658
    },
    {
      "epoch": "2026-03-31T10:21:24.460704Z",
      "apogee_km": 360.4778029253812,
      "perigee_km": 359.11835714363406,
      "latitude_deg": -5.5881042965096076e-05,
      "longitude_deg": -124.8225682982721,
      "height_km": 360.83115046118456,
      "semi_major_axis_km": 6737.935080034507,
      "eccentricity": 0.00010088,
      "inclination_deg": 53.1597,
      "raan_deg": 219.3384,
      "arg_perigee_deg": 100.109,
      "mean_anomaly_deg": 260.0041,
      "mean_motion_rev_day": 15.69685074
    },
    {
      "epoch": "2026-04-01T01:38:14.844768Z",
      "apogee_km": 360.5332804509517,
      "perigee_km": 359.0156332744082,
      "latitude_deg": -2.5067548250015203e-05,
      "longitude_deg": 2.202567439305834,
      "height_km": 360.88933975542443,
      "semi_major_axis_km": 6737.91145686268,
      "eccentricity": 0.00011262,
      "inclination_deg": 53.1578,
      "raan_deg": 216.201,
      "arg_perigee_deg": 105.3955,
      "mean_anomaly_deg": 254.7187,
      "mean_motion_rev_day": 15.69693329
    },
    {
      "epoch": "2026-04-02T17:21:59.037408Z",
      "apogee_km": 360.1588889327477,
      "perigee_km": 359.19942391207314,
      "latitude_deg": 5.57924801567259e-05,
      "longitude_deg": 116.47948364591569,
      "height_km": 360.48433166401594,
      "semi_major_axis_km": 6737.81615642241,
      "eccentricity": 7.12e-05,
      "inclination_deg": 53.1603,
      "raan_deg": 208.0436,
      "arg_perigee_deg": 76.8607,
      "mean_anomaly_deg": 283.2491,
      "mean_motion_rev_day": 15.69726632
    }
  ]
}